{
    "links": {
        "self": "http://www.neowsapp.com/rest/v1/neo/3869342?api_key=iIulBulltgU6a56xZRHN4H3l9WmuAYTsLGpBGhQ2"
    },
    "id": "3869342",
    "neo_reference_id": "3869342",
    "name": "(2019 SR6)",
    "designation": "2019 SR6",
    "nasa_jpl_url": "http://ssd.jpl.nasa.gov/sbdb.cgi?sstr=3869342",
    "absolute_magnitude_h": 24.5,
    "estimated_diameter": {
        "kilometers": {
            "estimated_diameter_min": 0.0334622374,
            "estimated_diameter_max": 0.0748238376
        },
        "meters": {
            "estimated_diameter_min": 33.4622374455,
            "estimated_diameter_max": 74.8238376074
        },
        "miles": {
            "estimated_diameter_min": 0.0207924639,
            "estimated_diameter_max": 0.0464933628
        },
        "feet": {
            "estimated_diameter_min": 109.7842471007,
            "estimated_diameter_max": 245.4850393757
        }
    },
    "is_potentially_hazardous_asteroid": false,
    "close_approach_data": [
        {
            "close_approach_date": "2019-09-07",
            "close_approach_date_full": "2019-Sep-07 11:34",
            "epoch_date_close_approach": 1567856040000,
            "relative_velocity": {
                "kilometers_per_second": "6.3662903148",
                "kilometers_per_hour": "22918.6451331332",
                "miles_per_hour": "14240.7548050849"
            },
            "miss_distance": {
                "astronomical": "0.1415861256",
                "lunar": "55.0770028584",
                "kilometers": "21180982.811312472",
                "miles": "13161252.4235652336"
            },
            "orbiting_body": "Earth"
        }
    ],
    "orbital_data": {
        "orbit_id": "1",
        "orbit_determination_date": "2019-09-29 07:42:04",
        "first_observation_date": "2019-09-26",
        "last_observation_date": "2019-09-29",
        "data_arc_in_days": 3,
        "observations_used": 10,
        "orbit_uncertainty": "9",
        "minimum_orbit_intersection": ".128187",
        "jupiter_tisserand_invariant": "3.273",
        "epoch_osculation": "2458753.5",
        "eccentricity": ".5382576268732248",
        "semi_major_axis": "2.45529852473249",
        "inclination": "4.617956706004002",
        "ascending_node_longitude": "359.5620395491076",
        "orbital_period": "1405.254165087",
        "perihelion_distance": "1.13371536754465",
        "perihelion_argument": "338.4983436682356",
        "aphelion_distance": "3.776881681920329",
        "perihelion_time": "2458730.920980416700",
        "mean_anomaly": "5.784325178986223",
        "mean_motion": ".2561814146821704",
        "equinox": "J2000",
        "orbit_class": {
            "orbit_class_type": "AMO",
            "orbit_class_description": "Near-Earth asteroid orbits similar to that of 1221 Amor",
            "orbit_class_range": "1.017 AU < q (perihelion) < 1.3 AU"
        }
    },
    "is_sentry_object": false
}